{
  "type": "FeatureCollection",
  "features": [
    {
      "type": "Feature",
      "properties": {
        "norad_id": 28890,
        "name": "BEIJING 1",
        "group": "dmc",
        "lat": -24.99333816044907,
        "lon": -59.56410478763363,
        "alt_km": 688.5609252167842,
        "timestamp": "2025-12-22T18:58:53.087423+00:00",
        "meta_object_name": "BEIJING 1",
        "meta_object_id": "2005-043A",
        "meta_epoch": "2025-12-22T06:33:40.307616",
        "meta_mean_motion": 14.6337408,
        "meta_eccentricity": 0.00157617,
        "meta_inclination": 98.2662,
        "meta_ra_of_asc_node": 123.8032,
        "meta_arg_of_pericenter": 113.2477,
        "meta_mean_anomaly": 247.0386,
        "meta_ephemeris_type": 0,
        "meta_classification_type": "U",
        "meta_norad_cat_id": 28890,
        "meta_element_set_no": 999,
        "meta_rev_at_epoch": 7477,
        "meta_bstar": 6.2359369e-05,
        "meta_mean_motion_dot": 2.74e-06,
        "meta_mean_motion_ddot": 0,
        "tle_line1": "1 28890U 05043A   25356.27338319  .00000274  00000+0  62359-4 0  9997",
        "tle_line2": "2 28890  98.2662 123.8032 0015761 113.2477 247.0386 14.63374080 74777"
      },
      "geometry": {
        "type": "Point",
        "coordinates": [
          -59.56410478763363,
          -24.99333816044907
        ]
      }
    },
    {
      "type": "Feature",
      "properties": {
        "norad_id": 33320,
        "name": "HUANJING 1A (HJ-1A)",
        "group": "dmc",
        "lat": -55.07626050135703,
        "lon": 153.56514403426849,
        "alt_km": 633.7384801836915,
        "timestamp": "2025-12-22T18:58:53.087447+00:00",
        "meta_object_name": "HUANJING 1A (HJ-1A)",
        "meta_object_id": "2008-041A",
        "meta_epoch": "2025-12-22T06:35:20.370912",
        "meta_mean_motion": 14.8342357,
        "meta_eccentricity": 0.00194365,
        "meta_inclination": 97.654,
        "meta_ra_of_asc_node": 344.1749,
        "meta_arg_of_pericenter": 4.3363,
        "meta_mean_anomaly": 355.8016,
        "meta_ephemeris_type": 0,
        "meta_classification_type": "U",
        "meta_norad_cat_id": 33320,
        "meta_element_set_no": 999,
        "meta_rev_at_epoch": 93217,
        "meta_bstar": 0.00022554838,
        "meta_mean_motion_dot": 1.806e-05,
        "meta_mean_motion_ddot": 0,
        "tle_line1": "1 33320U 08041A   25356.27454133  .00001806  00000+0  22555-3 0  9990",
        "tle_line2": "2 33320  97.6540 344.1749 0019436   4.3363 355.8016 14.83423570932175"
      },
      "geometry": {
        "type": "Point",
        "coordinates": [
          153.56514403426849,
          -55.07626050135703
        ]
      }
    },
    {
      "type": "Feature",
      "properties": {
        "norad_id": 33321,
        "name": "HUANJING 1B (HJ-1B)",
        "group": "dmc",
        "lat": 74.4471341267826,
        "lon": -40.49371566610573,
        "alt_km": 590.8495410959649,
        "timestamp": "2025-12-22T18:58:53.087462+00:00",
        "meta_object_name": "HUANJING 1B (HJ-1B)",
        "meta_object_id": "2008-041B",
        "meta_epoch": "2025-12-22T05:41:04.117344",
        "meta_mean_motion": 14.82844059,
        "meta_eccentricity": 0.00379605,
        "meta_inclination": 97.6398,
        "meta_ra_of_asc_node": 347.8109,
        "meta_arg_of_pericenter": 45.6711,
        "meta_mean_anomaly": 314.7604,
        "meta_ephemeris_type": 0,
        "meta_classification_type": "U",
        "meta_norad_cat_id": 33321,
        "meta_element_set_no": 999,
        "meta_rev_at_epoch": 93218,
        "meta_bstar": 0.00011606898,
        "meta_mean_motion_dot": 9e-06,
        "meta_mean_motion_ddot": 0,
        "tle_line1": "1 33321U 08041B   25356.23685321  .00000900  00000+0  11607-3 0  9992",
        "tle_line2": "2 33321  97.6398 347.8109 0037960  45.6711 314.7604 14.82844059932180"
      },
      "geometry": {
        "type": "Point",
        "coordinates": [
          -40.49371566610573,
          74.4471341267826
        ]
      }
    },
    {
      "type": "Feature",
      "properties": {
        "norad_id": 33446,
        "name": "YAOGAN-4",
        "group": "dmc",
        "lat": -16.716454838296986,
        "lon": -70.81186205599768,
        "alt_km": 620.4838166131594,
        "timestamp": "2025-12-22T18:58:53.087474+00:00",
        "meta_object_name": "YAOGAN-4",
        "meta_object_id": "2008-061A",
        "meta_epoch": "2025-12-22T06:06:00.446976",
        "meta_mean_motion": 14.82709029,
        "meta_eccentricity": 0.00130575,
        "meta_inclination": 97.9196,
        "meta_ra_of_asc_node": 286.2606,
        "meta_arg_of_pericenter": 289.7088,
        "meta_mean_anomaly": 70.2716,
        "meta_ephemeris_type": 0,
        "meta_classification_type": "U",
        "meta_norad_cat_id": 33446,
        "meta_element_set_no": 999,
        "meta_rev_at_epoch": 91944,
        "meta_bstar": 0.00016517331,
        "meta_mean_motion_dot": 1.281e-05,
        "meta_mean_motion_ddot": 0,
        "tle_line1": "1 33446U 08061A   25356.25417184  .00001281  00000+0  16517-3 0  9992",
        "tle_line2": "2 33446  97.9196 286.2606 0013057 289.7088  70.2716 14.82709029919443"
      },
      "geometry": {
        "type": "Point",
        "coordinates": [
          -70.81186205599768,
          -16.716454838296986
        ]
      }
    },
    {
      "type": "Feature",
      "properties": {
        "norad_id": 35681,
        "name": "DEIMOS-1",
        "group": "dmc",
        "lat": -13.221910267612095,
        "lon": -24.89899667716923,
        "alt_km": 650.9967781191854,
        "timestamp": "2025-12-22T18:58:53.087486+00:00",
        "meta_object_name": "DEIMOS-1",
        "meta_object_id": "2009-041A",
        "meta_epoch": "2025-12-22T06:42:40.529664",
        "meta_mean_motion": 14.74965072,
        "meta_eccentricity": 0.00025744,
        "meta_inclination": 97.7148,
        "meta_ra_of_asc_node": 156.4389,
        "meta_arg_of_pericenter": 64.6084,
        "meta_mean_anomaly": 295.5392,
        "meta_ephemeris_type": 0,
        "meta_classification_type": "U",
        "meta_norad_cat_id": 35681,
        "meta_element_set_no": 999,
        "meta_rev_at_epoch": 88080,
        "meta_bstar": 7.6106164e-05,
        "meta_mean_motion_dot": 4.64e-06,
        "meta_mean_motion_ddot": 0,
        "tle_line1": "1 35681U 09041A   25356.27963576  .00000464  00000+0  76106-4 0  9990",
        "tle_line2": "2 35681  97.7148 156.4389 0002574  64.6084 295.5392 14.74965072880807"
      },
      "geometry": {
        "type": "Point",
        "coordinates": [
          -24.89899667716923,
          -13.221910267612095
        ]
      }
    },
    {
      "type": "Feature",
      "properties": {
        "norad_id": 35683,
        "name": "UK-DMC 2",
        "group": "dmc",
        "lat": -52.065086477886396,
        "lon": -58.79433123495691,
        "alt_km": 650.9213684701863,
        "timestamp": "2025-12-22T18:58:53.087497+00:00",
        "meta_object_name": "UK-DMC 2",
        "meta_object_id": "2009-041C",
        "meta_epoch": "2025-12-22T06:32:18.213792",
        "meta_mean_motion": 14.75639207,
        "meta_eccentricity": 0.00015215,
        "meta_inclination": 97.8568,
        "meta_ra_of_asc_node": 130.9061,
        "meta_arg_of_pericenter": 93.4878,
        "meta_mean_anomaly": 266.6506,
        "meta_ephemeris_type": 0,
        "meta_classification_type": "U",
        "meta_norad_cat_id": 35683,
        "meta_element_set_no": 999,
        "meta_rev_at_epoch": 88047,
        "meta_bstar": 9.5345421e-05,
        "meta_mean_motion_dot": 6.02e-06,
        "meta_mean_motion_ddot": 0,
        "tle_line1": "1 35683U 09041C   25356.27243303  .00000602  00000+0  95345-4 0  9991",
        "tle_line2": "2 35683  97.8568 130.9061 0001521  93.4878 266.6506 14.75639207880470"
      },
      "geometry": {
        "type": "Point",
        "coordinates": [
          -58.79433123495691,
          -52.065086477886396
        ]
      }
    },
    {
      "type": "Feature",
      "properties": {
        "norad_id": 40715,
        "name": "DMC3-FM1",
        "group": "dmc",
        "lat": -80.16533360334932,
        "lon": -85.37323446892552,
        "alt_km": 616.6699923618216,
        "timestamp": "2025-12-22T18:58:53.087508+00:00",
        "meta_object_name": "DMC3-FM1",
        "meta_object_id": "2015-032A",
        "meta_epoch": "2025-12-22T06:25:29.479584",
        "meta_mean_motion": 14.85456365,
        "meta_eccentricity": 0.00040714,
        "meta_inclination": 97.6687,
        "meta_ra_of_asc_node": 223.1126,
        "meta_arg_of_pericenter": 282.4578,
        "meta_mean_anomaly": 77.6182,
        "meta_ephemeris_type": 0,
        "meta_classification_type": "U",
        "meta_norad_cat_id": 40715,
        "meta_element_set_no": 999,
        "meta_rev_at_epoch": 56364,
        "meta_bstar": 0.00012731306,
        "meta_mean_motion_dot": 1.046e-05,
        "meta_mean_motion_ddot": 0,
        "tle_line1": "1 40715U 15032A   25356.26770231  .00001046  00000+0  12731-3 0  9994",
        "tle_line2": "2 40715  97.6687 223.1126 0004071 282.4578  77.6182 14.85456365563649"
      },
      "geometry": {
        "type": "Point",
        "coordinates": [
          -85.37323446892552,
          -80.16533360334932
        ]
      }
    },
    {
      "type": "Feature",
      "properties": {
        "norad_id": 40716,
        "name": "DMC3-FM2",
        "group": "dmc",
        "lat": 23.67940798887866,
        "lon": 48.45780043717214,
        "alt_km": 613.865153600138,
        "timestamp": "2025-12-22T18:58:53.087519+00:00",
        "meta_object_name": "DMC3-FM2",
        "meta_object_id": "2015-032B",
        "meta_epoch": "2025-12-22T05:20:52.033344",
        "meta_mean_motion": 14.85456855,
        "meta_eccentricity": 0.00046772,
        "meta_inclination": 97.6745,
        "meta_ra_of_asc_node": 224.5201,
        "meta_arg_of_pericenter": 289.9376,
        "meta_mean_anomaly": 70.1336,
        "meta_ephemeris_type": 0,
        "meta_classification_type": "U",
        "meta_norad_cat_id": 40716,
        "meta_element_set_no": 999,
        "meta_rev_at_epoch": 56363,
        "meta_bstar": 5.3080926e-05,
        "meta_mean_motion_dot": 4.06e-06,
        "meta_mean_motion_ddot": 0,
        "tle_line1": "1 40716U 15032B   25356.22282446  .00000406  00000+0  53081-4 0  9990",
        "tle_line2": "2 40716  97.6745 224.5201 0004677 289.9376  70.1336 14.85456855563636"
      },
      "geometry": {
        "type": "Point",
        "coordinates": [
          48.45780043717214,
          23.67940798887866
        ]
      }
    },
    {
      "type": "Feature",
      "properties": {
        "norad_id": 40717,
        "name": "DMC3-FM3",
        "group": "dmc",
        "lat": 39.51568266290837,
        "lon": -139.6826255096384,
        "alt_km": 610.2418586816248,
        "timestamp": "2025-12-22T18:58:53.087529+00:00",
        "meta_object_name": "DMC3-FM3",
        "meta_object_id": "2015-032C",
        "meta_epoch": "2025-12-22T05:52:07.535424",
        "meta_mean_motion": 14.85440046,
        "meta_eccentricity": 0.00040928,
        "meta_inclination": 97.6798,
        "meta_ra_of_asc_node": 226.1804,
        "meta_arg_of_pericenter": 290.6065,
        "meta_mean_anomaly": 69.4711,
        "meta_ephemeris_type": 0,
        "meta_classification_type": "U",
        "meta_norad_cat_id": 40717,
        "meta_element_set_no": 999,
        "meta_rev_at_epoch": 56364,
        "meta_bstar": -7.984144e-06,
        "meta_mean_motion_dot": -1.2e-06,
        "meta_mean_motion_ddot": 0,
        "tle_line1": "1 40717U 15032C   25356.24453166 -.00000120  00000+0 -79841-5 0  9990",
        "tle_line2": "2 40717  97.6798 226.1804 0004092 290.6065  69.4711 14.85440046563641"
      },
      "geometry": {
        "type": "Point",
        "coordinates": [
          -139.6826255096384,
          39.51568266290837
        ]
      }
    }
  ]
}